{
    "links": {
        "self": "http://www.neowsapp.com/rest/v1/neo/3802038?api_key=iIulBulltgU6a56xZRHN4H3l9WmuAYTsLGpBGhQ2"
    },
    "id": "3802038",
    "neo_reference_id": "3802038",
    "name": "(2018 FC3)",
    "designation": "2018 FC3",
    "nasa_jpl_url": "http://ssd.jpl.nasa.gov/sbdb.cgi?sstr=3802038",
    "absolute_magnitude_h": 27.5,
    "estimated_diameter": {
        "kilometers": {
            "estimated_diameter_min": 0.008405334,
            "estimated_diameter_max": 0.0187948982
        },
        "meters": {
            "estimated_diameter_min": 8.4053340207,
            "estimated_diameter_max": 18.7948982439
        },
        "miles": {
            "estimated_diameter_min": 0.0052228308,
            "estimated_diameter_max": 0.0116786047
        },
        "feet": {
            "estimated_diameter_min": 27.5765560686,
            "estimated_diameter_max": 61.6630539546
        }
    },
    "is_potentially_hazardous_asteroid": false,
    "close_approach_data": [
        {
            "close_approach_date": "1963-08-16",
            "close_approach_date_full": "1963-Aug-16 23:31",
            "epoch_date_close_approach": -201227340000,
            "relative_velocity": {
                "kilometers_per_second": "19.3193613544",
                "kilometers_per_hour": "69549.7008757885",
                "miles_per_hour": "43215.4794136254"
            },
            "miss_distance": {
                "astronomical": "0.2000885076",
                "lunar": "77.8344294564",
                "kilometers": "29932814.548438812",
                "miles": "18599388.4952951256"
            },
            "orbiting_body": "Earth"
        },
        {
            "close_approach_date": "2018-03-23",
            "close_approach_date_full": "2018-Mar-23 19:08",
            "epoch_date_close_approach": 1521832080000,
            "relative_velocity": {
                "kilometers_per_second": "15.3104805339",
                "kilometers_per_hour": "55117.7299220508",
                "miles_per_hour": "34248.0139062876"
            },
            "miss_distance": {
                "astronomical": "0.0134668351",
                "lunar": "5.2385988539",
                "kilometers": "2014609.846601237",
                "miles": "1251820.5109895906"
            },
            "orbiting_body": "Earth"
        }
    ],
    "orbital_data": {
        "orbit_id": "1",
        "orbit_determination_date": "2018-03-21 10:42:05",
        "first_observation_date": "2018-03-20",
        "last_observation_date": "2018-03-21",
        "data_arc_in_days": 1,
        "observations_used": 29,
        "orbit_uncertainty": "8",
        "minimum_orbit_intersection": ".011523",
        "jupiter_tisserand_invariant": "3.795",
        "epoch_osculation": "2458197.5",
        "eccentricity": ".5636545476049223",
        "semi_major_axis": "1.84198657580964",
        "inclination": "9.09113888878893",
        "ascending_node_longitude": "179.5157262974339",
        "orbital_period": "913.1205526303985",
        "perihelion_distance": ".8037424657273176",
        "perihelion_argument": "66.96826077841146",
        "aphelion_distance": "2.880230685891963",
        "perihelion_time": "2458244.466812375903",
        "mean_anomaly": "341.4832199246654",
        "mean_motion": ".3942524335510344",
        "equinox": "J2000",
        "orbit_class": {
            "orbit_class_type": "APO",
            "orbit_class_description": "Near-Earth asteroid orbits which cross the Earth’s orbit similar to that of 1862 Apollo",
            "orbit_class_range": "a (semi-major axis) > 1.0 AU; q (perihelion) < 1.017 AU"
        }
    },
    "is_sentry_object": false
}